[
    {
        "Altitude(m)": 571842.6338460293,
        "Argument of Periapsis(deg)": 0.013245982221427002,
        "Eccentricity": 0.0,
        "Inclination(deg)": 53.0,
        "Latitude(deg)": -53.1447458535214,
        "Longitude(deg)": 72.24184613098126,
        "Mean Anomaly(deg)": -90.72591426484482,
        "RAAN(deg)": 264.9802867370561,
        "Satellite Name": "Starlink Shell 1 1181",
        "Satellite Number": 1181,
        "Semi-Major Axis(m)": 6931778.249405717,
        "Time(s)": 380
    },
    {
        "Altitude(m)": 571844.7734311327,
        "Argument of Periapsis(deg)": 0.013594560700938237,
        "Eccentricity": 0.0,
        "Inclination(deg)": 53.0,
        "Latitude(deg)": -53.15050790713765,
        "Longitude(deg)": 73.2391829321553,
        "Mean Anomaly(deg)": -90.09908306128816,
        "RAAN(deg)": 264.97976796697856,
        "Satellite Name": "Starlink Shell 1 1181",
        "Satellite Number": 1181,
        "Semi-Major Axis(m)": 6931778.249405717,
        "Time(s)": 390
    },
    {
        "Altitude(m)": 571843.4319055576,
        "Argument of Periapsis(deg)": 0.013943139180449475,
        "Eccentricity": 0.0,
        "Inclination(deg)": 53.0,
        "Latitude(deg)": -53.147215844090354,
        "Longitude(deg)": 74.23657908387447,
        "Mean Anomaly(deg)": -89.47225185773138,
        "RAAN(deg)": 264.9792491969011,
        "Satellite Name": "Starlink Shell 1 1181",
        "Satellite Number": 1181,
        "Semi-Major Axis(m)": 6931778.249405717,
        "Time(s)": 400
    },
    {
        "Altitude(m)": 571838.6097834386,
        "Argument of Periapsis(deg)": 0.014291717659960712,
        "Eccentricity": 0.0,
        "Inclination(deg)": 53.0,
        "Latitude(deg)": -53.134872106826016,
        "Longitude(deg)": 75.23359890064718,
        "Mean Anomaly(deg)": -88.84542065417476,
        "RAAN(deg)": 264.97873042682363,
        "Satellite Name": "Starlink Shell 1 1181",
        "Satellite Number": 1181,
        "Semi-Major Axis(m)": 6931778.249405717,
        "Time(s)": 410
    },
    {
        "Altitude(m)": 571830.3089683874,
        "Argument of Periapsis(deg)": 0.014640296139471948,
        "Eccentricity": 0.0,
        "Inclination(deg)": 53.0,
        "Latitude(deg)": -53.113485847335824,
        "Longitude(deg)": 76.22980731891231,
        "Mean Anomaly(deg)": -88.21858945061797,
        "RAAN(deg)": 264.97821165674617,
        "Satellite Name": "Starlink Shell 1 1181",
        "Satellite Number": 1181,
        "Semi-Major Axis(m)": 6931778.249405717,
        "Time(s)": 420
    },
    {
        "Altitude(m)": 571818.5327526585,
        "Argument of Periapsis(deg)": 0.014988874618983185,
        "Eccentricity": 0.0,
        "Inclination(deg)": 53.0,
        "Latitude(deg)": -53.08307289364138,
        "Longitude(deg)": 77.22477169738835,
        "Mean Anomaly(deg)": -87.59175824706129,
        "RAAN(deg)": 264.97769288666865,
        "Satellite Name": "Starlink Shell 1 1181",
        "Satellite Number": 1181,
        "Semi-Major Axis(m)": 6931778.249405717,
        "Time(s)": 430
    },
    {
        "Altitude(m)": 571803.2858157351,
        "Argument of Periapsis(deg)": 0.015337453098494424,
        "Eccentricity": 0.0,
        "Inclination(deg)": 53.0,
        "Latitude(deg)": -53.0436556920118,
        "Longitude(deg)": 78.21806359966678,
        "Mean Anomaly(deg)": -86.96492704350456,
        "RAAN(deg)": 264.9771741165912,
        "Satellite Name": "Starlink Shell 1 1181",
        "Satellite Number": 1181,
        "Semi-Major Axis(m)": 6931778.249405717,
        "Time(s)": 440
    },
    {
        "Altitude(m)": 571784.5742223037,
        "Argument of Periapsis(deg)": 0.01568603157800566,
        "Eccentricity": 0.0,
        "Inclination(deg)": 53.0,
        "Latitude(deg)": -52.995263225406035,
        "Longitude(deg)": 79.20925903693937,
        "Mean Anomaly(deg)": -86.3380958399479,
        "RAAN(deg)": 264.9766553465137,
        "Satellite Name": "Starlink Shell 1 1181",
        "Satellite Number": 1181,
        "Semi-Major Axis(m)": 6931778.249405717,
        "Time(s)": 450
    },
    {
        "Altitude(m)": 571762.405419639,
        "Argument of Periapsis(deg)": 0.0160346100575169,
        "Eccentricity": 0.0,
        "Inclination(deg)": 53.0,
        "Latitude(deg)": -52.937930908830644,
        "Longitude(deg)": 80.19794018773563,
        "Mean Anomaly(deg)": -85.71126463639114,
        "RAAN(deg)": 264.97613657643626,
        "Satellite Name": "Starlink Shell 1 1181",
        "Satellite Number": 1181,
        "Semi-Major Axis(m)": 6931778.249405717,
        "Time(s)": 460
    },
    {
        "Altitude(m)": 571736.7882343923,
        "Argument of Periapsis(deg)": 0.016383188537028134,
        "Eccentricity": 0.0,
        "Inclination(deg)": 53.0,
        "Latitude(deg)": -52.87170046249386,
        "Longitude(deg)": 81.18369707340791,
        "Mean Anomaly(deg)": -85.08443343283439,
        "RAAN(deg)": 264.9756178063588,
        "Satellite Name": "Starlink Shell 1 1181",
        "Satellite Number": 1181,
        "Semi-Major Axis(m)": 6931778.249405717,
        "Time(s)": 470
    },
    {
        "Altitude(m)": 571707.7328687634,
        "Argument of Periapsis(deg)": 0.01673176701653937,
        "Eccentricity": 0.0,
        "Inclination(deg)": 53.0,
        "Latitude(deg)": -52.796619763812096,
        "Longitude(deg)": 82.16612766869989,
        "Mean Anomaly(deg)": -84.45760222927771,
        "RAAN(deg)": 264.97509903628134,
        "Satellite Name": "Starlink Shell 1 1181",
        "Satellite Number": 1181,
        "Semi-Major Axis(m)": 6931778.249405717,
        "Time(s)": 480
    },
    {
        "Altitude(m)": 571675.2508961139,
        "Argument of Periapsis(deg)": 0.017080345496050607,
        "Eccentricity": 0.0,
        "Inclination(deg)": 53.0,
        "Latitude(deg)": -52.71274267948012,
        "Longitude(deg)": 83.14483946601732,
        "Mean Anomaly(deg)": -83.83077102572105,
        "RAAN(deg)": 264.9745802662038,
        "Satellite Name": "Starlink Shell 1 1181",
        "Satellite Number": 1181,
        "Semi-Major Axis(m)": 6931778.249405717,
        "Time(s)": 490
    },
    {
        "Altitude(m)": 571639.3552559398,
        "Argument of Periapsis(deg)": 0.017428923975561842,
        "Eccentricity": 0.0,
        "Inclination(deg)": 53.0,
        "Latitude(deg)": -52.62012887896251,
        "Longitude(deg)": 84.11945097417059,
        "Mean Anomaly(deg)": -83.20393982216422,
        "RAAN(deg)": 264.9740614961264,
        "Satellite Name": "Starlink Shell 1 1181",
        "Satellite Number": 1181,
        "Semi-Major Axis(m)": 6931778.249405717,
        "Time(s)": 500
    },
    {
        "Altitude(m)": 571600.0602482919,
        "Argument of Periapsis(deg)": 0.01777750245507308,
        "Eccentricity": 0.0,
        "Inclination(deg)": 53.0,
        "Latitude(deg)": -52.51884363088412,
        "Longitude(deg)": 85.08959163318424,
        "Mean Anomaly(deg)": -82.57710861860755,
        "RAAN(deg)": 264.9735427260489,
        "Satellite Name": "Starlink Shell 1 1181",
        "Satellite Number": 1181,
        "Semi-Major Axis(m)": 6931778.249405717,
        "Time(s)": 510
    },
    {
        "Altitude(m)": 571557.3815275946,
        "Argument of Periapsis(deg)": 0.018126080934584315,
        "Eccentricity": 0.0,
        "Inclination(deg)": 53.0,
        "Latitude(deg)": -52.408957583897845,
        "Longitude(deg)": 86.05490316624989,
        "Mean Anomaly(deg)": -81.95027741505085,
        "RAAN(deg)": 264.9730239559714,
        "Satellite Name": "Starlink Shell 1 1181",
        "Satellite Number": 1181,
        "Semi-Major Axis(m)": 6931778.249405717,
        "Time(s)": 520
    },
    {
        "Altitude(m)": 571511.3360958487,
        "Argument of Periapsis(deg)": 0.018474659414095554,
        "Eccentricity": 0.0,
        "Inclination(deg)": 53.0,
        "Latitude(deg)": -52.29054653367865,
        "Longitude(deg)": 87.01504085228517,
        "Mean Anomaly(deg)": -81.32344621149413,
        "RAAN(deg)": 264.97250518589397,
        "Satellite Name": "Starlink Shell 1 1181",
        "Satellite Number": 1181,
        "Semi-Major Axis(m)": 6931778.249405717,
        "Time(s)": 530
    },
    {
        "Altitude(m)": 571461.9422953257,
        "Argument of Periapsis(deg)": 0.018823237893606792,
        "Eccentricity": 0.0,
        "Inclination(deg)": 53.0,
        "Latitude(deg)": -52.16369117783461,
        "Longitude(deg)": 87.96967320278978,
        "Mean Anomaly(deg)": -80.69661500793735,
        "RAAN(deg)": 264.9719864158165,
        "Satellite Name": "Starlink Shell 1 1181",
        "Satellite Number": 1181,
        "Semi-Major Axis(m)": 6931778.249405717,
        "Time(s)": 540
    },
    {
        "Altitude(m)": 571409.219800568,
        "Argument of Periapsis(deg)": 0.019171816373118027,
        "Eccentricity": 0.0,
        "Inclination(deg)": 53.0,
        "Latitude(deg)": -52.02847686032035,
        "Longitude(deg)": 88.91848306823607,
        "Mean Anomaly(deg)": -80.06978380438069,
        "RAAN(deg)": 264.971467645739,
        "Satellite Name": "Starlink Shell 1 1181",
        "Satellite Number": 1181,
        "Semi-Major Axis(m)": 6931778.249405717,
        "Time(s)": 550
    },
    {
        "Altitude(m)": 571353.1896099166,
        "Argument of Periapsis(deg)": 0.019520394852629266,
        "Eccentricity": 0.0,
        "Inclination(deg)": 53.0,
        "Latitude(deg)": -51.88499330734262,
        "Longitude(deg)": 89.86116865824256,
        "Mean Anomaly(deg)": -79.44295260082407,
        "RAAN(deg)": 264.9709488756615,
        "Satellite Name": "Starlink Shell 1 1181",
        "Satellite Number": 1181,
        "Semi-Major Axis(m)": 6931778.249405717,
        "Time(s)": 560
    }
]